{
  "type": "FeatureCollection",
  "features": [
    {
      "type": "Feature",
      "properties": {
        "norad_id": 67047,
        "name": "STARLINK-35779",
        "group": "last-30-days",
        "lat": -10.335566003991046,
        "lon": -24.63753011829412,
        "alt_km": 294.23643679859015,
        "timestamp": "2025-12-18T23:35:47.784474+00:00",
        "meta_object_name": "STARLINK-35779",
        "meta_object_id": "2025-294T",
        "meta_epoch": "2025-12-17T20:00:01.999872",
        "meta_mean_motion": 15.96210119,
        "meta_eccentricity": 0.00017908,
        "meta_inclination": 43.0001,
        "meta_ra_of_asc_node": 151.2578,
        "meta_arg_of_pericenter": 279.1169,
        "meta_mean_anomaly": 146.7506,
        "meta_ephemeris_type": 0,
        "meta_classification_type": "U",
        "meta_norad_cat_id": 67047,
        "meta_element_set_no": 999,
        "meta_rev_at_epoch": 212,
        "meta_bstar": -0.0032092408,
        "meta_mean_motion_dot": -0.01379026,
        "meta_mean_motion_ddot": 0.00056706351,
        "tle_line1": "1 67047U 25294T   25351.83335648 -.01379026  56706-3 -32092-2 0  9997",
        "tle_line2": "2 67047  43.0001 151.2578 0001790 279.1169 146.7506 15.96210119  2124"
      },
      "geometry": {
        "type": "Point",
        "coordinates": [
          -24.63753011829412,
          -10.335566003991046
        ]
      }
    },
    {
      "type": "Feature",
      "properties": {
        "norad_id": 67048,
        "name": "STARLINK-35905",
        "group": "last-30-days",
        "lat": -11.373950052344204,
        "lon": -23.461011443840928,
        "alt_km": 294.1062275451677,
        "timestamp": "2025-12-18T23:35:47.784484+00:00",
        "meta_object_name": "STARLINK-35905",
        "meta_object_id": "2025-294U",
        "meta_epoch": "2025-12-17T20:00:01.999872",
        "meta_mean_motion": 15.96281015,
        "meta_eccentricity": 0.00017421,
        "meta_inclination": 43.0002,
        "meta_ra_of_asc_node": 151.2544,
        "meta_arg_of_pericenter": 278.8328,
        "meta_mean_anomaly": 148.3106,
        "meta_ephemeris_type": 0,
        "meta_classification_type": "U",
        "meta_norad_cat_id": 67048,
        "meta_element_set_no": 999,
        "meta_rev_at_epoch": 212,
        "meta_bstar": -0.0032043304,
        "meta_mean_motion_dot": -0.0138222,
        "meta_mean_motion_ddot": 0.00056988515,
        "tle_line1": "1 67048U 25294U   25351.83335648 -.01382220  56989-3 -32043-2 0  9997",
        "tle_line2": "2 67048  43.0002 151.2544 0001742 278.8328 148.3106 15.96281015  2126"
      },
      "geometry": {
        "type": "Point",
        "coordinates": [
          -23.461011443840928,
          -11.373950052344204
        ]
      }
    },
    {
      "type": "Feature",
      "properties": {
        "norad_id": 67049,
        "name": "STARLINK-35877",
        "group": "last-30-days",
        "lat": -12.741782270819455,
        "lon": -21.889312206216186,
        "alt_km": 293.9412280767947,
        "timestamp": "2025-12-18T23:35:47.784494+00:00",
        "meta_object_name": "STARLINK-35877",
        "meta_object_id": "2025-294V",
        "meta_epoch": "2025-12-17T20:00:01.999872",
        "meta_mean_motion": 15.96379091,
        "meta_eccentricity": 0.00017984,
        "meta_inclination": 43.0004,
        "meta_ra_of_asc_node": 151.2501,
        "meta_arg_of_pericenter": 278.7397,
        "meta_mean_anomaly": 150.087,
        "meta_ephemeris_type": 0,
        "meta_classification_type": "U",
        "meta_norad_cat_id": 67049,
        "meta_element_set_no": 999,
        "meta_rev_at_epoch": 212,
        "meta_bstar": -0.0032020066,
        "meta_mean_motion_dot": -0.01388599,
        "meta_mean_motion_ddot": 0.00057529194,
        "tle_line1": "1 67049U 25294V   25351.83335648 -.01388599  57529-3 -32020-2 0  9999",
        "tle_line2": "2 67049  43.0004 151.2501 0001798 278.7397 150.0870 15.96379091  2128"
      },
      "geometry": {
        "type": "Point",
        "coordinates": [
          -21.889312206216186,
          -12.741782270819455
        ]
      }
    },
    {
      "type": "Feature",
      "properties": {
        "norad_id": 67050,
        "name": "STARLINK-36078",
        "group": "last-30-days",
        "lat": -14.118853297122588,
        "lon": -20.27823085467943,
        "alt_km": 293.6742339187631,
        "timestamp": "2025-12-18T23:35:47.784506+00:00",
        "meta_object_name": "STARLINK-36078",
        "meta_object_id": "2025-294W",
        "meta_epoch": "2025-12-17T20:00:01.999872",
        "meta_mean_motion": 15.96482561,
        "meta_eccentricity": 0.00016892,
        "meta_inclination": 43.0003,
        "meta_ra_of_asc_node": 151.2459,
        "meta_arg_of_pericenter": 276.0563,
        "meta_mean_anomaly": 154.4712,
        "meta_ephemeris_type": 0,
        "meta_classification_type": "U",
        "meta_norad_cat_id": 67050,
        "meta_element_set_no": 999,
        "meta_rev_at_epoch": 212,
        "meta_bstar": -0.003205983,
        "meta_mean_motion_dot": -0.01398096,
        "meta_mean_motion_ddot": 0.00058314372,
        "tle_line1": "1 67050U 25294W   25351.83335648 -.01398096  58314-3 -32060-2 0  9991",
        "tle_line2": "2 67050  43.0003 151.2459 0001689 276.0563 154.4712 15.96482561  2126"
      },
      "geometry": {
        "type": "Point",
        "coordinates": [
          -20.27823085467943,
          -14.118853297122588
        ]
      }
    },
    {
      "type": "Feature",
      "properties": {
        "norad_id": 67051,
        "name": "STARLINK-35706",
        "group": "last-30-days",
        "lat": -15.491000107025148,
        "lon": -18.64050882369174,
        "alt_km": 293.65873706536877,
        "timestamp": "2025-12-18T23:35:47.784517+00:00",
        "meta_object_name": "STARLINK-35706",
        "meta_object_id": "2025-294X",
        "meta_epoch": "2025-12-17T20:00:01.999872",
        "meta_mean_motion": 15.96577558,
        "meta_eccentricity": 0.00017621,
        "meta_inclination": 43.0004,
        "meta_ra_of_asc_node": 151.2416,
        "meta_arg_of_pericenter": 280.3512,
        "meta_mean_anomaly": 151.8911,
        "meta_ephemeris_type": 0,
        "meta_classification_type": "U",
        "meta_norad_cat_id": 67051,
        "meta_element_set_no": 999,
        "meta_rev_at_epoch": 212,
        "meta_bstar": -0.0031937345,
        "meta_mean_motion_dot": -0.01400037,
        "meta_mean_motion_ddot": 0.00058519778,
        "tle_line1": "1 67051U 25294X   25351.83335648 -.01400037  58520-3 -31937-2 0  9992",
        "tle_line2": "2 67051  43.0004 151.2416 0001762 280.3512 151.8911 15.96577558  2128"
      },
      "geometry": {
        "type": "Point",
        "coordinates": [
          -18.64050882369174,
          -15.491000107025148
        ]
      }
    },
    {
      "type": "Feature",
      "properties": {
        "norad_id": 67052,
        "name": "STARLINK-35720",
        "group": "last-30-days",
        "lat": -16.536468863613038,
        "lon": -17.368063101848243,
        "alt_km": 293.6182906027534,
        "timestamp": "2025-12-18T23:35:47.784527+00:00",
        "meta_object_name": "STARLINK-35720",
        "meta_object_id": "2025-294Y",
        "meta_epoch": "2025-12-17T20:00:01.999872",
        "meta_mean_motion": 15.96650748,
        "meta_eccentricity": 0.00017847,
        "meta_inclination": 43.0004,
        "meta_ra_of_asc_node": 151.2383,
        "meta_arg_of_pericenter": 283.0487,
        "meta_mean_anomaly": 150.5069,
        "meta_ephemeris_type": 0,
        "meta_classification_type": "U",
        "meta_norad_cat_id": 67052,
        "meta_element_set_no": 999,
        "meta_rev_at_epoch": 212,
        "meta_bstar": -0.0031831494,
        "meta_mean_motion_dot": -0.01401019,
        "meta_mean_motion_ddot": 0.00058638999,
        "tle_line1": "1 67052U 25294Y   25351.83335648 -.01401019  58639-3 -31831-2 0  9998",
        "tle_line2": "2 67052  43.0004 151.2383 0001784 283.0487 150.5069 15.96650748  2120"
      },
      "geometry": {
        "type": "Point",
        "coordinates": [
          -17.368063101848243,
          -16.536468863613038
        ]
      }
    },
    {
      "type": "Feature",
      "properties": {
        "norad_id": 67053,
        "name": "STARLINK-35739",
        "group": "last-30-days",
        "lat": -17.7601740693856,
        "lon": -15.84882354495169,
        "alt_km": 293.2486372524172,
        "timestamp": "2025-12-18T23:35:47.784538+00:00",
        "meta_object_name": "STARLINK-35739",
        "meta_object_id": "2025-294Z",
        "meta_epoch": "2025-12-17T20:00:01.999872",
        "meta_mean_motion": 15.96745544,
        "meta_eccentricity": 0.0001692,
        "meta_inclination": 43.0004,
        "meta_ra_of_asc_node": 151.234,
        "meta_arg_of_pericenter": 277.5416,
        "meta_mean_anomaly": 157.5684,
        "meta_ephemeris_type": 0,
        "meta_classification_type": "U",
        "meta_norad_cat_id": 67053,
        "meta_element_set_no": 999,
        "meta_rev_at_epoch": 212,
        "meta_bstar": -0.0031909075,
        "meta_mean_motion_dot": -0.01411628,
        "meta_mean_motion_ddot": 0.00059513953,
        "tle_line1": "1 67053U 25294Z   25351.83335648 -.01411628  59514-3 -31909-2 0  9995",
        "tle_line2": "2 67053  43.0004 151.2340 0001692 277.5416 157.5684 15.96745544  2121"
      },
      "geometry": {
        "type": "Point",
        "coordinates": [
          -15.84882354495169,
          -17.7601740693856
        ]
      }
    }
  ]
}